H1 CPF  1  DLR 2021 05 30 10  6502 technosat            
H2  1704205 6203    42829 2021 05 30 00 00 00 2021 06 06 00 00 00    60 1 1  0 0 0
H9
10 0 59364  79200.000000  0       4440209.140      -2060606.699      -4962433.124
10 0 59364  79260.000000  0       4099255.241      -2016967.644      -5265057.966
10 0 59364  79320.000000  0       3741496.183      -1961789.871      -5545382.256
10 0 59364  79380.000000  0       3368546.326      -1895170.438      -5802232.727
10 0 59364  79440.000000  0       2982080.749      -1817268.497      -6034536.526
10 0 59364  79500.000000  0       2583827.626      -1728304.995      -6241325.411
10 0 59364  79560.000000  0       2175560.334      -1628562.076      -6421739.570
10 0 59364  79620.000000  0       1759089.380      -1518382.120      -6575030.849
10 0 59364  79680.000000  0       1336254.310      -1398166.526      -6700565.460
10 0 59364  79740.000000  0        908915.637      -1268374.227      -6797826.251
10 0 59364  79800.000000  0        478946.695      -1129519.914      -6866414.613
10 0 59364  79860.000000  0         48225.473       -982171.921      -6906051.814
10 0 59364  79920.000000  0       -381373.405       -826949.911      -6916579.883
10 0 59364  79980.000000  0       -807986.677       -664522.298      -6897962.158
10 0 59364  80040.000000  0      -1229770.443       -495603.371      -6850283.309
10 0 59364  80100.000000  0      -1644907.987       -320950.156      -6773748.839
10 0 59364  80160.000000  0      -2051617.424       -141359.086      -6668684.165
10 0 59364  80220.000000  0      -2448159.181         42337.541      -6535533.247
10 0 59364  80280.000000  0      -2832843.243        229275.317      -6374856.822
10 0 59364  80340.000000  0      -3204036.226        418561.694      -6187330.243
10 0 59364  80400.000000  0      -3560168.283        609280.141      -5973740.881
10 0 59364  80460.000000  0      -3899739.776        800494.448      -5734985.011
10 0 59364  80520.000000  0      -4221327.568        991253.161      -5472064.229
10 0 59364  80580.000000  0      -4523591.010       1180594.172      -5186081.601
10 0 59364  80640.000000  0      -4805277.717       1367549.483      -4878237.355
10 0 59364  80700.000000  0      -5065228.940       1551150.083      -4549824.026
10 0 59364  80760.000000  0      -5302384.456       1730430.837      -4202221.205
10 0 59364  80820.000000  0      -5515787.054       1904435.400      -3836889.971
10 0 59364  80880.000000  0      -5704586.626       2072221.175      -3455366.948
10 0 59364  80940.000000  0      -5868043.804       2232864.257      -3059257.996
10 0 59364  81000.000000  0      -6005533.086       2385464.352      -2650231.554
10 0 59364  81060.000000  0      -6116545.454       2529149.649      -2230011.687
10 0 59364  81120.000000  0      -6200690.476       2663081.603      -1800370.841
10 0 59364  81180.000000  0      -6257697.850       2786459.595      -1363122.330
10 0 59364  81240.000000  0      -6287418.385       2898525.459       -920112.637
10 0 59364  81300.000000  0      -6289824.441       2998567.830       -473213.514
10 0 59364  81360.000000  0      -6265009.758       3085926.266        -24313.886
10 0 59364  81420.000000  0      -6213188.666       3159995.136        424688.279
10 0 59364  81480.000000  0      -6134694.727       3220227.281        871894.171
10 0 59364  81540.000000  0      -6029978.804       3266137.411       1315412.302
10 0 59364  81600.000000  0      -5899606.615       3297305.183       1753366.694
10 0 59364  81660.000000  0      -5744255.676       3313377.935       2183904.963
10 0 59364  81720.000000  0      -5564711.792       3314073.148       2605206.226
10 0 59364  81780.000000  0      -5361865.053       3299180.544       3015488.945
10 0 59364  81840.000000  0      -5136705.321       3268563.813       3413018.563
10 0 59364  81900.000000  0      -4890317.274       3222161.947       3796114.907
10 0 59364  81960.000000  0      -4623875.018       3159990.204       4163159.287
10 0 59364  82020.000000  0      -4338636.330       3082140.732       4512601.263
10 0 59364  82080.000000  0      -4035936.622       2988782.809       4842965.108
10 0 59364  82140.000000  0      -3717182.590       2880162.693       5152855.967
10 0 59364  82200.000000  0      -3383845.574       2756603.172       5440965.681
10 0 59364  82260.000000  0      -3037454.585       2618502.685       5706078.200
10 0 59364  82320.000000  0      -2679589.191       2466334.052       5947074.531
10 0 59364  82380.000000  0      -2311872.258       2300642.877       6162937.296
10 0 59364  82440.000000  0      -1935962.506       2122045.575       6352754.900
10 0 59364  82500.000000  0      -1553546.947       1931227.076       6515725.136
10 0 59364  82560.000000  0      -1166333.352       1728938.205       6651158.359
10 0 59364  82620.000000  0       -776042.723       1515992.727       6758480.267
10 0 59364  82680.000000  0       -384401.717       1293264.090       6837234.250
10 0 59364  82740.000000  0          6864.934       1061681.884       6887083.272
10 0 59364  82800.000000  0        396041.956        822228.007       6907811.290
10 0 59364  82860.000000  0        781430.982        575932.575       6899324.188
10 0 59364  82920.000000  0       1161357.894        323869.565       6861650.268
10 0 59364  82980.000000  0       1534180.048         67152.214       6794940.284
10 0 59364  83040.000000  0       1898293.360       -193071.837       6699467.013
10 0 59364  83100.000000  0       2252139.206       -455625.644       6575624.330
10 0 59364  83160.000000  0       2594211.128       -719308.218       6423925.807
10 0 59364  83220.000000  0       2923061.361       -982899.935       6245002.840
10 0 59364  83280.000000  0       3237307.100      -1245168.151       6039602.312
10 0 59364  83340.000000  0       3535636.508      -1504872.993       5808583.714
10 0 59364  83400.000000  0       3816814.358      -1760773.205       5552915.758
10 0 59364  83460.000000  0       4079687.333      -2011632.081       5273672.566
10 0 59364  83520.000000  0       4323188.995      -2256223.458       4972029.428
10 0 59364  83580.000000  0       4546344.407      -2493337.777       4649258.128
10 0 59364  83640.000000  0       4748274.366      -2721788.176       4306721.761
10 0 59364  83700.000000  0       4928199.187      -2940416.525       3945869.107
10 0 59364  83760.000000  0       5085442.045      -3148099.400       3568228.549
10 0 59364  83820.000000  0       5219431.809      -3343753.920       3175401.564
10 0 59364  83880.000000  0       5329705.331      -3526343.450       2769055.871
10 0 59364  83940.000000  0       5415909.197      -3694883.148       2350918.256
10 0 59364  84000.000000  0       5477800.972      -3848445.309       1922767.144
10 0 59364  84060.000000  0       5515249.947      -3986164.531       1486424.832
10 0 59364  84120.000000  0       5528237.272      -4107242.517       1043749.432
10 0 59364  84180.000000  0       5516855.534      -4210952.526        596626.717
10 0 59364  84240.000000  0       5481307.839      -4296643.614        146961.825
10 0 59364  84300.000000  0       5421906.299      -4363744.492       -303329.258
10 0 59364  84360.000000  0       5339069.922      -4411766.883       -752328.235
10 0 59364  84420.000000  0       5233322.030      -4440308.517      -1198122.981
10 0 59364  84480.000000  0       5105287.138      -4449055.731      -1638816.048
10 0 59364  84540.000000  0       4955687.311      -4437785.536      -2072533.071
10 0 59364  84600.000000  0       4785338.062      -4406367.259      -2497430.977
10 0 59364  84660.000000  0       4595143.832      -4354763.748      -2911706.046
10 0 59364  84720.000000  0       4386093.068      -4283032.089      -3313601.785
10 0 59364  84780.000000  0       4159252.869      -4191323.791      -3701416.505
10 0 59364  84840.000000  0       3915763.345      -4079884.540      -4073510.551
10 0 59364  84900.000000  0       3656831.680      -3949053.515      -4428313.252
10 0 59364  84960.000000  0       3383725.901      -3799262.213      -4764329.499
10 0 59364  85020.000000  0       3097768.448      -3631032.835      -5080145.905
10 0 59364  85080.000000  0       2800329.554      -3444976.252      -5374436.537
10 0 59364  85140.000000  0       2492820.527      -3241789.567      -5645968.176
10 0 59364  85200.000000  0       2176686.981      -3022253.332      -5893605.203
10 0 59364  85260.000000  0       1853401.957      -2787228.407      -6116314.087
10 0 59364  85320.000000  0       1524458.984      -2537652.412      -6313167.476
10 0 59364  85380.000000  0       1191365.088      -2274535.777      -6483347.767
10 0 59364  85440.000000  0        855633.860      -1998957.454      -6626150.147
10 0 59364  85500.000000  0        518778.618      -1712060.383      -6740985.140
10 0 59364  85560.000000  0        182305.640      -1415046.691      -6827380.716
10 0 59364  85620.000000  0       -152292.473      -1109172.607      -6884983.912
10 0 59364  85680.000000  0       -483543.244       -795743.171      -6913562.012
10 0 59364  85740.000000  0       -810000.681       -476106.738      -6913003.339
10 0 59364  85800.000000  0      -1130251.498       -151649.225      -6883317.540
10 0 59364  85860.000000  0      -1442921.104        176211.794      -6824635.380
10 0 59364  85920.000000  0      -1746679.369        506033.166      -6737208.127
10 0 59364  85980.000000  0      -2040246.139        836352.394      -6621406.504
10 0 59364  86040.000000  0      -2322396.495       1165694.009      -6477719.168
10 0 59364  86100.000000  0      -2591965.757       1492576.007      -6306750.771
10 0 59364  86160.000000  0      -2847854.236       1815516.373      -6109219.615
10 0 59364  86220.000000  0      -3089031.698       2133039.719      -5885954.873
10 0 59364  86280.000000  0      -3314541.509       2443683.969      -5637893.375
10 0 59364  86340.000000  0      -3523504.509       2746007.048      -5366075.939
99
